ONEWEB-0205             
1 48226U 21031S   25337.43894009  .00000187  00000+0  47028-3 0  9995
2 48226  87.8985 328.6930 0001588  85.4519 274.6792 13.14503017222552
ONEWEB-0206             
1 48227U 21031T   25337.48809764 -.00000031  00000+0 -11765-3 0  9994
2 48227  87.8995 328.6727 0002020  89.7591 270.3771 13.14503855222513
ONEWEB-0182             
1 48228U 21031U   25337.48334135 -.00000063  00000+0 -20464-3 0  9991
2 48228  87.8973 328.7042 0001611  94.7202 265.4112 13.14502811222729
ONEWEB-0186             
1 48229U 21031V   25337.49444497  .00000137  00000+0  33452-3 0  9997
2 48229  87.8991 328.6771 0001662  85.3503 274.7816 13.14503177222678
ONEWEB-0181             
1 48230U 21031W   25337.47223581 -.00000257  00000+0 -72680-3 0  9997
2 48230  87.8975 328.7375 0001697  81.8825 278.2497 13.14503222222528
ONEWEB-0188             
1 48231U 21031X   25337.43418175  .00000229  00000+0  58404-3 0  9994
2 48231  87.8976 328.7415 0001694  88.9558 271.1766 13.14503766222426
ONEWEB-0220             
1 48232U 21031Y   25337.39770969 -.00000134  00000+0 -39487-3 0  9999
2 48232  87.8989 328.6959 0001507  86.2707 273.8595 13.14503804222683
ONEWEB-0165             
1 48233U 21031Z   25337.42626635  .00000254  00000+0  65120-3 0  9998
2 48233  87.8975 328.7178 0001796  76.5523 283.5807 13.14503622222649
